IRIDIUM 106             
1 41917U 17003A   25243.20729486  .00000056  00000+0  12906-4 0  9999
2 41917  86.3990 209.6529 0002642  92.6485 267.5014 14.34218081451647
IRIDIUM 103             
1 41918U 17003B   25243.19460817 -.00000030  00000+0 -17869-4 0  9995
2 41918  86.3993 209.5592 0001798  99.6049 260.5350 14.34217469451661
IRIDIUM 109             
1 41919U 17003C   25243.20095157  .00000053  00000+0  11720-4 0  9992
2 41919  86.3991 209.6109 0002092  86.5620 273.5815 14.34217927451639
IRIDIUM 102             
1 41920U 17003D   25242.95993258  .00000026  00000+0  21316-5 0  9997
2 41920  86.3989 209.6413 0002216  83.0443 277.1005 14.34217891451685
IRIDIUM 105             
1 41921U 17003E   25243.20974706 -.00000087  00000+0 -38245-4 0  9991
2 41921  86.4044 178.0422 0002045  87.2786 272.8644 14.34217113453572
IRIDIUM 104             
1 41922U 17003F   25242.97260663  .00000286  00000+0  94890-4 0  9992
2 41922  86.3991 209.6743 0001888  86.8095 273.3317 14.34217856451678
IRIDIUM 114             
1 41923U 17003G   25243.18826568  .00000394  00000+0  13352-3 0  9992
2 41923  86.3988 209.5684 0002188  92.2677 267.8769 14.34218369451689
IRIDIUM 108             
1 41924U 17003H   25243.21655657 -.00000025  00000+0 -15850-4 0  9995
2 41924  86.4039 177.9359 0002303  82.3557 277.7900 14.34217531453545
